NORAD_CAT_ID,OBJECT_NAME,OBJECT_TYPE,EPOCH,MEAN_MOTION,ECCENTRICITY,INCLINATION,RA_OF_ASC_NODE,ARG_OF_PERICENTER,MEAN_ANOMALY,BSTAR,MEAN_MOTION_DOT,MEAN_MOTION_DDOT,TLE_LINE0,TLE_LINE1,TLE_LINE2,SEMIMAJOR_AXIS,PERIOD,APOGEE,PERIGEE,DECAYED
53535.0,STARLINK-4138,PAYLOAD,2022-10-15 14:00:01,15.08817813,0.0001426999999999,53.2178,245.654,57.7735,278.1684,0.0011845,0.00018602,0.0,0 STARLINK-4138,1 53535U 22101J   22288.58334491  .00018602  00000-0  11845-2 0  9994,2 53535  53.2178 245.6540 0001427  57.7735 278.1684 15.08817813  1305,6917.948,95.439,540.8,538.826,0.0
53535.0,STARLINK-4138,PAYLOAD,2022-10-15 22:00:01,15.08838047,0.0001491,53.2176,244.1498,66.1927,281.3936,-0.00016318,-2.884e-05,0.0,0 STARLINK-4138,1 53535U 22101J   22288.91668981 -.00002884  00000-0 -16318-3 0  9993,2 53535  53.2176 244.1498 0001491  66.1927 281.3936 15.08838047  8852,6917.886,95.438,540.783,538.72,0.0
53535.0,STARLINK-4138,PAYLOAD,2022-10-16 14:00:01,15.0883441,0.0001464,53.217,241.1577,60.6967,309.985,-0.00012789,-2.322e-05,0.0,0 STARLINK-4138,1 53535U 22101J   22289.58334491 -.00002322  00000-0 -12789-3 0  9998,2 53535  53.2170 241.1577 0001464  60.6967 309.9850 15.08834410  1309,6917.897,95.438,540.775,538.75,0.0
53535.0,STARLINK-4138,PAYLOAD,2022-10-16 22:00:00,15.08860878,0.0001415,53.217,239.6624,66.5294,315.7322,-0.00072739,-0.00011852,0.0,0 STARLINK-4138,1 53535U 22101J   22289.91667824 -.00011852  00000-0 -72739-3 0  9993,2 53535  53.2170 239.6624 0001415  66.5294 315.7322 15.08860878  1304,6917.816999999999,95.436,540.66,538.703,0.0
53535.0,STARLINK-4138,PAYLOAD,2022-10-17 06:00:00,15.08816298,0.0001537,53.2168,238.1681,57.1083,336.7686,0.0023768,0.00037717,0.0,0 STARLINK-4138,1 53535U 22101J   22290.25001157  .00037717  00000-0  23768-2 0  9996,2 53535  53.2168 238.1681 0001537  57.1083 336.7686 15.08816298  9058,6917.953,95.439,540.881,538.755,0.0
53535.0,STARLINK-4138,PAYLOAD,2022-10-17 14:00:01,15.08848277,0.0001453999999999,53.2169,236.6698,62.0172,343.4572,-0.0016561,-0.00026554,0.0,0 STARLINK-4138,1 53535U 22101J   22290.58334491 -.00026554  00000-0 -16561-2 0  9994,2 53535  53.2169 236.6698 0001454  62.0172 343.4572 15.08848277  1303,6917.855,95.437,540.726,538.714,0.0
53535.0,STARLINK-4138,PAYLOAD,2022-10-17 22:00:00,15.08853327,0.0001485,53.2167,235.1735,67.4529,349.6051,2.8973e-05,1.73e-06,0.0,0 STARLINK-4138,1 53535U 22101J   22290.91667824  .00000173  00000-0  28973-4 0  9999,2 53535  53.2167 235.1735 0001485  67.4529 349.6051 15.08853327  1308,6917.84,95.437,540.732,538.677,0.0
53535.0,STARLINK-4138,PAYLOAD,2022-10-18 14:00:01,15.08824623,0.0001513,53.2166,232.1796,62.3587,17.8787,-0.001364,-0.00021921,0.0,0 STARLINK-4138,1 53535U 22101J   22291.58334491 -.00021921  00000-0 -13640-2 0  9993,2 53535  53.2166 232.1796 0001513  62.3587  17.8787 15.08824623  9250,6917.927,95.439,540.839,538.746,0.0
53535.0,STARLINK-4138,PAYLOAD,2022-10-18 22:00:00,15.08827288,0.0001617,53.2167,230.6833,65.3102,26.4858,-6.1516e-05,-1.267e-05,0.0,0 STARLINK-4138,1 53535U 22101J   22291.91667824 -.00001267  00000-0 -61516-4 0  9997,2 53535  53.2167 230.6833 0001617  65.3102  26.4858 15.08827288  1300,6917.919,95.438,540.903,538.6659999999998,0.0
53535.0,STARLINK-4138,PAYLOAD,2022-10-19 06:00:00,15.08806321,0.0001723,53.2168,229.1886,58.0942,45.2884,0.0037784,0.00060305,0.0,0 STARLINK-4138,1 53535U 22101J   22292.25001157  .00060305  00000-0  37784-2 0  9990,2 53535  53.2168 229.1886 0001723  58.0942  45.2884 15.08806321  9357,6917.983,95.44,541.04,538.656,0.0
53535.0,STARLINK-4138,PAYLOAD,2022-10-19 14:00:01,15.08841893,0.0001595999999999,53.217,227.6906,63.3162,51.6499,0.00080446,0.00012539,0.0,0 STARLINK-4138,1 53535U 22101J   22292.58334491  .00012539  00000-0  80446-3 0  9996,2 53535  53.2170 227.6906 0001596  63.3162  51.6499 15.08841893  1300,6917.875,95.437,540.844,538.636,0.0
53535.0,STARLINK-4138,PAYLOAD,2022-10-19 22:00:00,15.08837195,0.0001365999999999,53.2175,226.2035,68.5878,58.0358,-5.9412e-05,-1.233e-05,0.0,0 STARLINK-4138,1 53535U 22101J   22292.91667824 -.00001233  00000-0 -59412-4 0  9993,2 53535  53.2175 226.2035 0001366  68.5878  58.0358 15.08837195  9458,6917.889,95.438,540.6990000000002,538.809,0.0
53535.0,STARLINK-4138,PAYLOAD,2022-10-20 14:00:01,15.08825787,0.0001473,53.2176,223.2014,60.7949,88.9873,0.0010806,0.00016945,0.0,0 STARLINK-4138,1 53535U 22101J   22293.58334491  .00016945  00000-0  10806-2 0  9994,2 53535  53.2176 223.2014 0001473  60.7949  88.9873 15.08825787  1309,6917.924,95.438,540.808,538.77,0.0
53535.0,STARLINK-4138,PAYLOAD,2022-10-20 22:00:00,15.0885815,0.0001517,53.2179,221.7065,63.3729,97.9886,-0.00063307,-0.00010354,0.0,0 STARLINK-4138,1 53535U 22101J   22293.91667824 -.00010354  00000-0 -63307-3 0  9995,2 53535  53.2179 221.7065 0001517  63.3729  97.9886 15.08858150  1309,6917.825,95.436,540.739,538.64,0.0
53535.0,STARLINK-4138,PAYLOAD,2022-10-21 14:00:01,15.08827127,0.0001375,53.218,218.7135,60.1765,124.3973,0.0019921,0.00031547,0.0,0 STARLINK-4138,1 53535U 22101J   22294.58334491  .00031547  00000-0  19921-2 0  9997,2 53535  53.2180 218.7135 0001375  60.1765 124.3973 15.08827127  1304,6917.92,95.438,540.736,538.8340000000002,0.0
53535.0,STARLINK-4138,PAYLOAD,2022-10-21 22:00:00,15.08876565,0.0001425,53.2183,217.2164,60.4092,135.7483,-0.0031622,-0.00050313,0.0,0 STARLINK-4138,1 53535U 22101J   22294.91667824 -.00050313  00000-0 -31622-2 0  9999,2 53535  53.2183 217.2164 0001425  60.4092 135.7483 15.08876565  1307,6917.769,95.435,540.619,538.648,0.0
53535.0,STARLINK-4138,PAYLOAD,2022-10-22 06:00:00,15.08820888,0.0001504,53.218,215.7212,52.1529,155.6286,0.0016256,0.00025665,0.0,0 STARLINK-4138,1 53535U 22101J   22295.25001157  .00025665  00000-0  16256-2 0  9994,2 53535  53.2180 215.7212 0001504  52.1529 155.6286 15.08820888  9804,6917.939,95.439,540.844,538.763,0.0
53535.0,STARLINK-4138,PAYLOAD,2022-10-22 14:00:01,15.08805889,0.00014,53.2182,214.2232,60.1888,159.1859,0.0016539,0.00026107,0.0,0 STARLINK-4138,1 53535U 22101J   22295.58334491  .00026107  00000-0  16539-2 0  9996,2 53535  53.2182 214.2232 0001400  60.1888 159.1859 15.08805889  1300,6917.985,95.44,540.818,538.881,0.0
53535.0,STARLINK-4138,PAYLOAD,2022-10-22 22:00:00,15.08847674,0.0001476999999999,53.2183,212.7278,62.0522,168.8893,-0.00040217,-6.684e-05,0.0,0 STARLINK-4138,1 53535U 22101J   22295.91667824 -.00006684  00000-0 -40217-3 0  9993,2 53535  53.2183 212.7278 0001477  62.0522 168.8893 15.08847674  9901,6917.857,95.437,540.744,538.7,0.0
53535.0,STARLINK-4138,PAYLOAD,2022-10-23 14:00:01,15.08851651,0.0001462,53.2179,209.7344,63.4447,190.7262,0.0022689,0.00036018,0.0,0 STARLINK-4138,1 53535U 22101J   22296.58334491  .00036018  00000-0  22689-2 0  9992,2 53535  53.2179 209.7344 0001462  63.4447 190.7262 15.08851651 10008,6917.845,95.437,540.721,538.698,0.0
53535.0,STARLINK-4138,PAYLOAD,2022-10-23 22:00:00,15.08893983,0.0001515,53.2179,208.239,64.0809,201.7123,-0.0047684,-0.00075493,0.0,0 STARLINK-4138,1 53535U 22101J   22296.91667824 -.00075493  00000-0 -47684-2 0  9992,2 53535  53.2179 208.2390 0001515  64.0809 201.7123 15.08893983  1307,6917.715,95.434,540.628,538.5319999999998,0.0
53535.0,STARLINK-4138,PAYLOAD,2022-10-24 06:00:00,15.088284699999996,0.0001479,53.2175,206.7435,54.0267,223.3948,-0.0024641,-0.00039278,0.0,0 STARLINK-4138,1 53535U 22101J   22297.25001157 -.00039278  00000-0 -24641-2 0  9990,2 53535  53.2175 206.7435 0001479  54.0267 223.3948 15.08828470 10104,6917.916,95.438,540.804,538.757,0.0
53535.0,STARLINK-4138,PAYLOAD,2022-10-24 14:00:01,15.08770465,0.0001286999999999,53.2175,205.2456,59.9478,229.0461,0.0032569,0.00051828,0.0,0 STARLINK-4138,1 53535U 22101J   22297.58334491  .00051828  00000-0  32569-2 0  9997,2 53535  53.2175 205.2456 0001287  59.9478 229.0461 15.08770465  1301,6918.093000000003,95.442,540.8480000000002,539.068,0.0
53535.0,STARLINK-4138,PAYLOAD,2022-10-24 22:00:00,15.08816631,0.0001395999999999,53.2175,203.7504,58.7945,241.7302,-0.0010026,-0.00016199,0.0,0 STARLINK-4138,1 53535U 22101J   22297.91667824 -.00016199  00000-0 -10026-2 0  9991,2 53535  53.2175 203.7504 0001396  58.7945 241.7302 15.08816631 10216,6917.9519999999975,95.439,540.783,538.851,0.0
53535.0,STARLINK-4138,PAYLOAD,2022-10-25 14:00:01,15.08797792,0.0001367,53.2172,200.7569,60.6256,263.0328,0.0034101,0.00054339,0.0,0 STARLINK-4138,1 53535U 22101J   22298.58334491  .00054339  00000-0  34101-2 0  9992,2 53535  53.2172 200.7569 0001367  60.6256 263.0328 15.08797792 10318,6918.009,95.44,540.82,538.929,0.0
53535.0,STARLINK-4138,PAYLOAD,2022-10-25 22:00:01,15.08844721,0.00015,53.2172,199.2617,58.2379,277.0481,-0.001096,-0.00017691,0.0,0 STARLINK-4138,1 53535U 22101J   22298.91668981 -.00017691  00000-0 -10960-2 0  9992,2 53535  53.2172 199.2617 0001500  58.2379 277.0481 15.08844721  1301,6917.866,95.437,540.769,538.693,0.0
53535.0,STARLINK-4138,PAYLOAD,2022-10-26 06:00:00,15.08837605,0.0001559,53.2169,197.766,52.1156,294.6999,0.0013318,0.0002097,0.0,0 STARLINK-4138,1 53535U 22101J   22299.25001157  .00020970  00000-0  13318-2 0  9998,2 53535  53.2169 197.7660 0001559  52.1156 294.6999 15.08837605 10412,6917.888000000001,95.438,540.831,538.674,0.0
53535.0,STARLINK-4138,PAYLOAD,2022-10-26 14:00:01,15.08831657,0.0001471,53.217,196.268,61.4369,296.9873,0.0024128,0.00038312,0.0,0 STARLINK-4138,1 53535U 22101J   22299.58334491  .00038312  00000-0  24128-2 0  9994,2 53535  53.2170 196.2680 0001471  61.4369 296.9873 15.08831657  1307,6917.906,95.438,540.789,538.753,0.0
53535.0,STARLINK-4138,PAYLOAD,2022-10-26 22:00:00,15.08858281,0.0001688,53.2171,194.7728,59.8233,310.207,-0.0022221999999999,-0.00035498,0.0,0 STARLINK-4138,1 53535U 22101J   22299.91667824 -.00035498  00000-0 -22222-2 0  9997,2 53535  53.2171 194.7728 0001688  59.8233 310.2070 15.08858281  1306,6917.825,95.436,540.857,538.5219999999998,0.0
